ONEWEB-0311             
1 49097U 21075Y   25196.62260475  .00000050  00000+0  95460-4 0  9991
2 49097  87.9046  72.8559 0001408  81.6660 278.4631 13.17649313189301
ONEWEB-0312             
1 49098U 21075Z   25196.40999008  .00000047  00000+0  86655-4 0  9991
2 49098  87.9045  72.9291 0001588  71.0709 289.0594 13.17648368189250
ONEWEB-0313             
1 49099U 21075AA  25196.56678917 -.00000074  00000+0 -22272-3 0  9998
2 49099  87.9045  72.9134 0001747  83.9358 276.1973 13.17649070189266
ONEWEB-0314             
1 49100U 21075AB  25196.68505566  .00000012  00000+0 -27165-5 0  9992
2 49100  87.9047  72.8209 0001532  71.8653 288.2645 13.17648363190243
ONEWEB-0315             
1 49101U 21075AC  25196.62230763  .00000019  00000+0  16199-4 0  9991
2 49101  87.8857  57.5672 0001463  91.4140 268.7156 13.12440427191021
ONEWEB-0316             
1 49102U 21075AD  25196.57070889  .00000009  00000+0 -10334-4 0  9992
2 49102  87.9125  42.3456 0001655  91.7911 268.3411 13.18685245193853
ONEWEB-0317             
1 49103U 21075AE  25196.53958607  .00000102  00000+0  24751-3 0  9992
2 49103  87.8854  57.5993 0002414  68.7118 291.4268 13.12440876191031
ONEWEB-0318             
1 49104U 21075AF  25196.56741157  .00000019  00000+0  14759-4 0  9991
2 49104  87.9127  42.3322 0001622  91.6735 268.4583 13.18685811192800
